#dP2024 12 26 18  0  0.00000000      96 __u+U IGS20 EXT  IAC
## 2346 410400.00000000   900.00000000 60670 0.7500000000000
+   52   G02G03G04G05G06G07G08G09G10G11G12G13G14G15G16G17G18
+        G19G20G21G22G23G24G25G26G27G28G29G30G31G32R01R02R03
+        R04R05R07R08R09R11R12R14R15R16R17R18R19R20R21R22R24
+        R26  0  0  0  0  0  0  0  0  0  0  0  0  0  0  0  0
+          0  0  0  0  0  0  0  0  0  0  0  0  0  0  0  0  0
++         7  7  7  6  6  7  8  7  8  7  7  7  8  7  7  6  8
++         6  7  7  7  7  7  6  8  7  7  8  7  7  7 10  7  8
++         8  9 10  8 10  9  9  9  8  9  8  7 11  8  7  6  9
++         8  0  0  0  0  0  0  0  0  0  0  0  0  0  0  0  0
++         0  0  0  0  0  0  0  0  0  0  0  0  0  0  0  0  0
%c M  cc GPS ccc cccc cccc cccc cccc ccccc ccccc ccccc ccccc
%c cc cc ccc ccc cccc cccc cccc cccc ccccc ccccc ccccc ccccc
%f  0.0000000  0.000000000  0.00000000000  0.000000000000000
%f  0.0000000  0.000000000  0.00000000000  0.000000000000000
%i    0    0    0    0      0      0      0      0         0
%i    0    0    0    0      0      0      0      0         0
/* IAC                                ULTRA-RAPID PREDICTION
/* S/V CLOCKS ARE ALIGNED TO GNSS TIME                      
/* G:C1WC2W R:C1PC2P E:C1XC5X C:C2IC6I J:C1CC2S             
/* PCV:IGS20_2317 OL/AL:FES2004  NONE     YN ORB:CoN CLK:CoN
*  2024 12 27 10 30  0.00000000
PG02 -13743.187989  12907.951395  19018.050869   -282.266286
PG03 -22751.458717  12730.010472  -4910.122965    633.761669
PG04 -14189.481643   7291.875471 -21242.437504    502.515735
PG05  24324.047904  -3760.521776 -10242.242239   -197.245141
PG06   6509.612755  21125.181471 -14561.731546    -75.044319
PG07  -6605.771952  24955.687603  -4593.631252    -14.426891
PG08 -21809.060663  -2144.752161  15190.878209    447.954163
PG09  -5598.260415  14580.222666 -21570.701215    504.386885
PG10  -5879.644443 -13519.086550  22326.613445   -251.450367
PG11  13019.245066   9677.261663 -21000.511826   -752.675079
PG12  24612.186470  -9759.201637  -2057.654368   -560.884895
PG13  21412.151629  11945.549809  10274.845502    691.445847
PG14   1662.384215  15859.828623  21260.177716    568.381751
PG15  21582.040783   -859.560552  15029.735897    244.516630
PG16 -22808.694116  -3069.953731 -13999.157798    -92.866785
PG17   9079.095442  20763.982344  14091.471675    501.290926
PG18   5737.546273 -25662.425765  -2698.859362   -659.598736
PG19  17051.045346  20200.663404   4236.732482    578.898241
PG20  17991.749022   4283.339784 -18926.974058    367.554793
PG21 -15167.116960   5067.127986  21404.407924     98.634633
PG22   9436.813923  12879.256902  21569.325163    -88.911430
PG23   9525.616767 -17210.637542  17775.756497    391.881339
PG24  14292.312720 -11086.161338  18850.849411   -469.882520
PG25  15818.079791 -17040.638385 -12949.550918    497.595876
PG26 -14988.238070  -9190.481029 -20187.895020    -24.522745
PG27 -23068.338098 -12069.673810   6011.611942    -33.777870
PG28  -6610.802811 -22416.278339 -12633.636519   -519.598319
PG29   6444.627668 -14134.929157 -21573.477843   -552.414951
PG30   1537.078350  25596.012898   6512.635216   -252.383496
PG31 -11675.691600 -14156.702467 -19318.274513   -219.159128
PG32 -14020.583980 -20008.325993  10897.735986   -552.203210
PR01 -20105.179002   2043.241428 -15558.768041    109.179652
PR02  -4932.814119   9628.197717 -23057.176866    -38.877377
PR03  13600.632912  12694.309435 -17369.598517    113.963202
PR04  23786.864991   8843.845728  -2435.127191    270.168848
PR05  21424.408142    289.054666  13829.659602    142.832830
PR07 -13957.415642 -12743.807754  17202.318205     97.731942
PR08 -23939.662361  -8584.178164   2304.161032     -6.195116
PR09  13393.670661 -19733.521426  -9148.227959    228.596490
PR11 -12777.590847  -2272.142317 -21950.990811      2.952395
PR12 -20091.946642  13162.453175  -8590.730302     48.902530
PR14    105.849990  14162.187750  21215.065868     27.493551
PR15  14051.983861    895.128371  21282.499377     72.782508
PR16  20028.601419 -13155.339336   8795.695280     31.975115
PR17   7325.873442  24081.477524  -4247.699363    152.147468
PR18  11316.656060  13634.684093 -18304.331691    178.910479
PR19  10347.334565  -1397.751744 -23265.828052   -303.400137
PR20   2612.023454 -21292.736819 -13817.839191   -123.825214
PR21  -6606.490342 -24428.558617   3103.952299   -163.050009
PR22 -11510.109698 -12655.591099  18957.672924    -52.969494
PR24  -1619.925808  21701.968931  13343.281827    -85.736673
PR26 -23432.268445  -9165.714070   4162.307600   -132.384277
*  2024 12 27 10 45  0.00000000
PG02 -13830.826767  10735.715181  20326.543994   -282.258216
PG03 -23172.092380  12716.630691  -2030.895025    633.768956
PG04 -16034.150223   5785.253888 -20390.785772    502.521149
PG05  23260.451159  -3019.172209 -12699.207841   -197.246100
PG06   6183.622900  22641.909440 -12241.599167    -75.069462
PG07  -6847.350785  24173.426524  -7340.379068    -14.426128
PG08 -23057.939354  -3198.554414  13069.189238    447.961818
PG09  -7650.099704  13217.228983 -21824.499465    504.401016
PG10  -3599.043338 -14515.690386  22153.580748   -251.464617
PG11  12601.946358  11995.408466 -20044.181307   -752.674887
PG12  24740.439284  -9531.773816    800.479873   -560.886906
PG13  22036.680944  12808.415042   7660.804174    691.447127
PG14   -571.006091  16730.240867  20618.431137    568.388453
PG15  22975.034315    110.909109  12926.657896    244.520731
PG16 -21304.308715  -3759.112161 -16060.335654    -92.858226
PG17   7668.882322  19846.186416  16177.572497    501.275986
PG18   5911.345419 -25161.162486  -5542.371537   -659.597983
PG19  16429.325556  19922.229389   6980.653624    578.902443
PG20  16204.472946   5667.585285 -20145.251623    367.554514
PG21 -15237.691166   2655.365721  21890.470586     98.636776
PG22   7173.770784  13713.821404  21957.089038    -88.913468
PG23  11315.792155 -17926.196389  15896.244458    391.888203
PG24  14452.053292  -8756.021059  19935.229709   -469.879413
PG25  17106.006300 -17375.970814 -10558.812280    497.595446
PG26 -13001.824852 -10390.955924 -20939.954748    -24.535884
PG27 -23396.227925 -12573.908103   3249.192381    -33.777487
PG28  -6306.205528 -23703.329078 -10203.426900   -519.607600
PG29   8362.476870 -12568.411646 -21893.825338   -552.412000
PG30   1145.815658  26139.803646   3776.936429   -252.376090
PG31 -11269.682244 -16216.659819 -17833.102288   -219.158455
PG32 -12813.433398 -19389.243136  13273.866217   -552.197458
PR01 -21849.125228   1743.372452 -13039.929816    109.180766
PR02  -7661.633170   8875.312270 -22616.702588    -38.877214
PR03  11430.394274  11998.263508 -19319.010319    113.963712
PR04  23354.561311   8532.074612  -5616.873170    270.170260
PR05  22945.997747    568.102088  11107.998859    142.833312
PR07 -11830.756765 -12045.879982  19184.713451     97.732719
PR08 -23529.910501  -8294.833091   5477.483681     -6.195366
PR09  13974.902634 -20482.223928  -6153.815513    228.598457
PR11 -10814.474669  -4208.399311 -22708.270612      2.950800
PR12 -19131.078872  12369.954680 -11471.720087     48.902876
PR14  -1629.245174  16002.481533  19795.218948     27.493569
PR15  12124.260531   2763.780802  22283.817942     72.782088
PR16  19040.405939 -12358.447137  11672.894115     31.975342
PR17   7588.502907  24353.075300  -1041.585811    152.150505
PR18  11946.153296  15677.960258 -16139.152772    178.912227
PR19  10949.441788   1398.353592 -22988.919222   -303.401400
PR20   2825.013785 -19435.689565 -16285.767461   -123.825469
PR21  -6839.952433 -24559.802802   -126.374325   -163.052927
PR22 -12073.797131 -14793.340816  16951.003196    -52.971061
PR24  -1956.582400  19934.597689  15827.228728    -85.738110
PR26 -22794.828239  -8824.419470   7285.279452   -132.384019
EOF
